{"type": "FeatureCollection", "features": [ {"type": "Feature", "properties": {"norad_id": 32109, "name": "FENGYUN 1C DEB", "group": "fengyun-1c-debris", "lat": 61.08538617356183, "lon": -158.65888588706875, "alt_km": 745.6470998538125, "timestamp": "2025-12-02T21:34:01.556446+00:00", "meta": {"OBJECT_NAME": "FENGYUN 1C DEB", "OBJECT_ID": "1999-025CRB", "EPOCH": "2025-11-27T22:22:45.612768", "MEAN_MOTION": 14.3384742, "ECCENTRICITY": 0.0206758, "INCLINATION": 98.3601, "RA_OF_ASC_NODE": 211.977, "ARG_OF_PERICENTER": 356.4894, "MEAN_ANOMALY": 3.4829, "EPHEMERIS_TYPE": 0, "CLASSIFICATION_TYPE": "U", "NORAD_CAT_ID": 32109, "ELEMENT_SET_NO": 999, "REV_AT_EPOCH": 64676, "BSTAR": 0.00064211, "MEAN_MOTION_DOT": 2.222e-05, "MEAN_MOTION_DDOT": 0}, "tle": {"line1": "1 32109U 99025CRB 25331.93247237  .00002222  00000+0  64211-3 0  9995", "line2": "2 32109  98.3601 211.9770 0206758 356.4894   3.4829 14.33847420646769"}}, "geometry": {"type": "Point", "coordinates": [-158.65888588706875, 61.08538617356183]}}, {"type": "Feature", "properties": {"norad_id": 32110, "name": "FENGYUN 1C DEB", "group": "fengyun-1c-debris", "lat": -76.69928011651601, "lon": -80.19249399858327, "alt_km": 819.8256392500916, "timestamp": "2025-12-02T21:34:01.556456+00:00", "meta": {"OBJECT_NAME": "FENGYUN 1C DEB", "OBJECT_ID": "1999-025CRC", "EPOCH": "2025-12-02T10:24:15.105024", "MEAN_MOTION": 14.28773451, "ECCENTRICITY": 0.0033172, "INCLINATION": 99.5432, "RA_OF_ASC_NODE": 144.6648, "ARG_OF_PERICENTER": 36.7876, "MEAN_ANOMALY": 353.0914, "EPHEMERIS_TYPE": 0, "CLASSIFICATION_TYPE": "U", "NORAD_CAT_ID": 32110, "ELEMENT_SET_NO": 999, "REV_AT_EPOCH": 64241, "BSTAR": 0.0019199, "MEAN_MOTION_DOT": 4.816e-05, "MEAN_MOTION_DDOT": 0}, "tle": {"line1": "1 32110U 99025CRC 25336.43350816  .00004816  00000+0  19199-2 0  9990", "line2": "2 32110  99.5432 144.6648 0033172  36.7876 353.0914 14.28773451642411"}}, "geometry": {"type": "Point", "coordinates": [-80.19249399858327, -76.69928011651601]}}, {"type": "Feature", "properties": {"norad_id": 32111, "name": "FENGYUN 1C DEB", "group": "fengyun-1c-debris", "lat": 14.121349997159328, "lon": 159.0398655919199, "alt_km": 755.5275502201339, "timestamp": "2025-12-02T21:34:01.556466+00:00", "meta": {"OBJECT_NAME": "FENGYUN 1C DEB", "OBJECT_ID": "1999-025CRD", "EPOCH": "2025-12-01T18:46:27.916320", "MEAN_MOTION": 14.31523108, "ECCENTRICITY": 0.01192533, "INCLINATION": 98.4435, "RA_OF_ASC_NODE": 335.8125, "ARG_OF_PERICENTER": 237.5229, "MEAN_ANOMALY": 299.5029, "EPHEMERIS_TYPE": 0, "CLASSIFICATION_TYPE": "U", "NORAD_CAT_ID": 32111, "ELEMENT_SET_NO": 999, "REV_AT_EPOCH": 95874, "BSTAR": 0.00024661709, "MEAN_MOTION_DOT": 6.64e-06, "MEAN_MOTION_DDOT": 0}, "tle": {"line1": "1 32111U 99025CRD 25335.78226755  .00000664  00000+0  24662-3 0  9991", "line2": "2 32111  98.4435 335.8125 0119253 237.5229 299.5029 14.31523108958748"}}, "geometry": {"type": "Point", "coordinates": [159.0398655919199, 14.121349997159328]}}, {"type": "Feature", "properties": {"norad_id": 32113, "name": "FENGYUN 1C DEB", "group": "fengyun-1c-debris", "lat": -77.63321005015938, "lon": 58.3621684508424, "alt_km": 762.2473032214075, "timestamp": "2025-12-02T21:34:01.556476+00:00", "meta": {"OBJECT_NAME": "FENGYUN 1C DEB", "OBJECT_ID": "1999-025CRF", "EPOCH": "2025-12-01T20:07:13.938528", "MEAN_MOTION": 13.9450729, "ECCENTRICITY": 0.02376048, "INCLINATION": 99.0283, "RA_OF_ASC_NODE": 10.8448, "ARG_OF_PERICENTER": 256.5436, "MEAN_ANOMALY": 100.9147, "EPHEMERIS_TYPE": 0, "CLASSIFICATION_TYPE": "U", "NORAD_CAT_ID": 32113, "ELEMENT_SET_NO": 999, "REV_AT_EPOCH": 62734, "BSTAR": 0.00090775002, "MEAN_MOTION_DOT": 1.486e-05, "MEAN_MOTION_DDOT": 0}, "tle": {"line1": "1 32113U 99025CRF 25335.83835577  .00001486  00000+0  90775-3 0  9998", "line2": "2 32113  99.0283  10.8448 0237604 256.5436 100.9147 13.94507290627345"}}, "geometry": {"type": "Point", "coordinates": [58.3621684508424, -77.63321005015938]}}, {"type": "Feature", "properties": {"norad_id": 32114, "name": "FENGYUN 1C DEB", "group": "fengyun-1c-debris", "lat": 16.837097941126938, "lon": 88.66596636910164, "alt_km": 610.3542416538176, "timestamp": "2025-12-02T21:34:01.556487+00:00", "meta": {"OBJECT_NAME": "FENGYUN 1C DEB", "OBJECT_ID": "1999-025CRG", "EPOCH": "2025-11-30T01:10:09.442560", "MEAN_MOTION": 14.76162507, "ECCENTRICITY": 0.00446183, "INCLINATION": 99.9271, "RA_OF_ASC_NODE": 88.2086, "ARG_OF_PERICENTER": 23.884, "MEAN_ANOMALY": 336.442, "EPHEMERIS_TYPE": 0, "CLASSIFICATION_TYPE": "U", "NORAD_CAT_ID": 32114, "ELEMENT_SET_NO": 999, "REV_AT_EPOCH": 65542, "BSTAR": 0.0027760533, "MEAN_MOTION_DOT": 0.00019481, "MEAN_MOTION_DDOT": 0}, "tle": {"line1": "1 32114U 99025CRG 25334.04872040  .00019481  00000+0  27761-2 0  9995", "line2": "2 32114  99.9271  88.2086 0044618  23.8840 336.4420 14.76162507655423"}}, "geometry": {"type": "Point", "coordinates": [88.66596636910164, 16.837097941126938]}}, {"type": "Feature", "properties": {"norad_id": 32117, "name": "FENGYUN 1C DEB", "group": "fengyun-1c-debris", "lat": -78.24803197874421, "lon": 155.67207291588343, "alt_km": 835.5278229748174, "timestamp": "2025-12-02T21:34:01.556497+00:00", "meta": {"OBJECT_NAME": "FENGYUN 1C DEB", "OBJECT_ID": "1999-025CRK", "EPOCH": "2025-12-01T02:10:47.284320", "MEAN_MOTION": 14.23859162, "ECCENTRICITY": 0.00279616, "INCLINATION": 98.6131, "RA_OF_ASC_NODE": 20.6672, "ARG_OF_PERICENTER": 124.8257, "MEAN_ANOMALY": 235.5559, "EPHEMERIS_TYPE": 0, "CLASSIFICATION_TYPE": "U", "NORAD_CAT_ID": 32117, "ELEMENT_SET_NO": 999, "REV_AT_EPOCH": 94631, "BSTAR": 0.0010989786, "MEAN_MOTION_DOT": 2.484e-05, "MEAN_MOTION_DDOT": 0}, "tle": {"line1": "1 32117U 99025CRK 25335.09082505  .00002484  00000+0  10990-2 0  9994", "line2": "2 32117  98.6131  20.6672 0027961 124.8257 235.5559 14.23859162946319"}}, "geometry": {"type": "Point", "coordinates": [155.67207291588343, -78.24803197874421]}}, {"type": "Feature", "properties": {"norad_id": 32119, "name": "FENGYUN 1C DEB", "group": "fengyun-1c-debris", "lat": -48.62131699091057, "lon": -150.0105156226719, "alt_km": 928.9019520663414, "timestamp": "2025-12-02T21:34:01.556508+00:00", "meta": {"OBJECT_NAME": "FENGYUN 1C DEB", "OBJECT_ID": "1999-025CRM", "EPOCH": "2025-12-02T08:06:34.750080", "MEAN_MOTION": 14.02777574, "ECCENTRICITY": 0.008505, "INCLINATION": 99.8869, "RA_OF_ASC_NODE": 197.9631, "ARG_OF_PERICENTER": 80.269, "MEAN_ANOMALY": 280.8066, "EPHEMERIS_TYPE": 0, "CLASSIFICATION_TYPE": "U", "NORAD_CAT_ID": 32119, "ELEMENT_SET_NO": 999, "REV_AT_EPOCH": 93582, "BSTAR": 0.0011651, "MEAN_MOTION_DOT": 1.81e-05, "MEAN_MOTION_DDOT": 0}, "tle": {"line1": "1 32119U 99025CRM 25336.33790220  .00001810  00000+0  11651-2 0  9991", "line2": "2 32119  99.8869 197.9631 0085050  80.2690 280.8066 14.02777574935827"}}, "geometry": {"type": "Point", "coordinates": [-150.0105156226719, -48.62131699091057]}}, {"type": "Feature", "properties": {"norad_id": 32123, "name": "FENGYUN 1C DEB", "group": "fengyun-1c-debris", "lat": -49.7381866315011, "lon": 154.62388349295878, "alt_km": 585.5833697919079, "timestamp": "2025-12-02T21:34:01.556518+00:00", "meta": {"OBJECT_NAME": "FENGYUN 1C DEB", "OBJECT_ID": "1999-025CRR", "EPOCH": "2025-12-02T10:25:26.486112", "MEAN_MOTION": 14.61410253, "ECCENTRICITY": 0.0160078, "INCLINATION": 98.9413, "RA_OF_ASC_NODE": 143.4088, "ARG_OF_PERICENTER": 324.8993, "MEAN_ANOMALY": 63.7718, "EPHEMERIS_TYPE": 0, "CLASSIFICATION_TYPE": "U", "NORAD_CAT_ID": 32123, "ELEMENT_SET_NO": 999, "REV_AT_EPOCH": 71224, "BSTAR": 0.00028296, "MEAN_MOTION_DOT": 1.613e-05, "MEAN_MOTION_DDOT": 0}, "tle": {"line1": "1 32123U 99025CRR 25336.43433433  .00001613  00000+0  28296-3 0  9992", "line2": "2 32123  98.9413 143.4088 0160078 324.8993  63.7718 14.61410253712240"}}, "geometry": {"type": "Point", "coordinates": [154.62388349295878, -49.7381866315011]}}, {"type": "Feature", "properties": {"norad_id": 32125, "name": "FENGYUN 1C DEB", "group": "fengyun-1c-debris", "lat": 11.42825911913328, "lon": 138.01190415725165, "alt_km": 789.5556713968526, "timestamp": "2025-12-02T21:34:01.556528+00:00", "meta": {"OBJECT_NAME": "FENGYUN 1C DEB", "OBJECT_ID": "1999-025CRT", "EPOCH": "2025-11-30T16:29:46.563072", "MEAN_MOTION": 14.69027096, "ECCENTRICITY": 0.01775541, "INCLINATION": 99.061, "RA_OF_ASC_NODE": 313.7121, "ARG_OF_PERICENTER": 0.429, "MEAN_ANOMALY": 359.7033, "EPHEMERIS_TYPE": 0, "CLASSIFICATION_TYPE": "U", "NORAD_CAT_ID": 32125, "ELEMENT_SET_NO": 999, "REV_AT_EPOCH": 70346, "BSTAR": 0.0033542642, "MEAN_MOTION_DOT": 0.00025065, "MEAN_MOTION_DDOT": 0}, "tle": {"line1": "1 32125U 99025CRT 25334.68734448  .00025065  00000+0  33543-2 0  9996", "line2": "2 32125  99.0610 313.7121 0177554   0.4290 359.7033 14.69027096703466"}}, "geometry": {"type": "Point", "coordinates": [138.01190415725165, 11.42825911913328]}}, {"type": "Feature", "properties": {"norad_id": 32126, "name": "FENGYUN 1C DEB", "group": "fengyun-1c-debris", "lat": -29.072264504376452, "lon": -141.20094387664415, "alt_km": 914.8764644704361, "timestamp": "2025-12-02T21:34:01.556538+00:00", "meta": {"OBJECT_NAME": "FENGYUN 1C DEB", "OBJECT_ID": "1999-025CRU", "EPOCH": "2025-11-29T21:08:43.407744", "MEAN_MOTION": 13.56758285, "ECCENTRICITY": 0.02819555, "INCLINATION": 99.1098, "RA_OF_ASC_NODE": 210.8851, "ARG_OF_PERICENTER": 288.4841, "MEAN_ANOMALY": 68.585, "EPHEMERIS_TYPE": 0, "CLASSIFICATION_TYPE": "U", "NORAD_CAT_ID": 32126, "ELEMENT_SET_NO": 999, "REV_AT_EPOCH": 61540, "BSTAR": 0.0013221034, "MEAN_MOTION_DOT": 1.169e-05, "MEAN_MOTION_DDOT": 0}, "tle": {"line1": "1 32126U 99025CRU 25333.88105796  .00001169  00000+0  13221-2 0  9996", "line2": "2 32126  99.1098 210.8851 0281955 288.4841  68.5850 13.56758285615400"}}, "geometry": {"type": "Point", "coordinates": [-141.20094387664415, -29.072264504376452]}}]}